OBJECT_NAME,OBJECT_ID,EPOCH,MEAN_MOTION,ECCENTRICITY,INCLINATION,RA_OF_ASC_NODE,ARG_OF_PERICENTER,MEAN_ANOMALY,EPHEMERIS_TYPE,CLASSIFICATION_TYPE,NORAD_CAT_ID,ELEMENT_SET_NO,REV_AT_EPOCH,BSTAR,MEAN_MOTION_DOT,MEAN_MOTION_DDOT
GAOFEN-3,2016-049A,2026-06-14T05:44:50.828352,14.42215350,.0001333,98.4009,173.0698,98.6633,261.4708,0,U,41727,999,51822,.42268E-4,.96E-6,0
SKYSAT-C4,2016-058B,2026-06-13T23:19:33.641760,15.48494630,.0001148,96.9169,186.8788,127.0278,233.1078,0,U,41771,999,54497,.31774E-3,.1682E-3,0
SKYSAT-C5,2016-058C,2026-06-14T02:29:59.087040,15.34431439,.0001371,97.0472,205.8819,337.9126,22.2059,0,U,41772,999,54327,.242E-3,.7996E-4,0
SKYSAT-C2,2016-058D,2026-06-14T00:21:17.072352,15.42005299,.0004904,97.0167,187.2291,77.2296,282.9500,0,U,41773,999,54456,.29716E-3,.12598E-3,0
SKYSAT-C3,2016-058E,2026-06-13T23:38:26.058048,15.52412222,.0001627,96.9003,195.9554,87.6160,272.5280,0,U,41774,999,54561,.39861E-3,.24284E-3,0
ALSAT-1B,2016-059C,2026-06-14T04:21:49.904640,14.72272283,.0007925,97.7748,174.0751,231.1936,128.8565,0,U,41785,999,52013,.44962E-4,.237E-5,0
PATHFINDER 1,2016-059E,2026-06-14T00:00:33.748704,14.67659964,.0027559,97.8166,164.4204,214.0063,145.9378,0,U,41787,999,51924,.10057E-3,.528E-5,0
SCATSAT 1,2016-059H,2026-06-14T04:04:39.052416,14.79519717,.0053294,98.1191,228.9048,257.4800,102.0446,0,U,41790,999,10114,.13515E-3,.977E-5,0
GOKTURK 1A,2016-073A,2026-06-14T04:01:16.823712,14.62774211,.0001445,98.1262,59.8898,76.1155,284.0208,0,U,41875,999,50838,.1657E-3,.798E-5,0
RESOURCESAT-2A,2016-074A,2026-06-14T04:26:35.221632,14.21615856,.000334,98.7532,238.7137,90.1944,269.9616,0,U,41877,999,49387,.12947E-3,.24E-5,0
CARTOSAT-2D,2017-008A,2026-06-14T04:40:15.809088,15.19313753,.0003734,97.4113,224.5561,241.5938,118.4921,0,U,41948,999,51712,.20759E-3,.4316E-4,0
SENTINEL-2B,2017-013A,2026-06-14T04:48:42.940800,14.30815586,.0001175,98.5697,240.0167,87.4207,272.7110,0,U,42063,999,48421,-.67464E-5,-.61E-6,0
CARTOSAT-2E,2017-036C,2026-06-14T03:30:59.841216,15.19234418,.0002662,97.4285,224.9986,336.2358,23.8753,0,U,42767,999,49768,.20662E-3,.4285E-4,0
FORMOSAT-5,2017-049A,2026-06-14T03:45:16.583616,14.50897869,.0012704,98.2253,240.5334,92.7231,267.5419,0,U,42920,999,46623,.49551E-4,.152E-5,0
SENTINEL-5P,2017-064A,2026-06-13T19:38:42.916128,14.19518491,.00009694,98.7925,106.9737,83.5750,276.5536,0,U,42969,999,44908,.37204499E-4,.34E-6,0
SKYSAT-C11,2017-068A,2026-06-13T23:22:35.577696,15.57742421,.0000772,97.4343,313.6651,89.1634,270.9709,0,U,42987,999,48274,.3663E-3,.27117E-3,0
SKYSAT-C10,2017-068B,2026-06-14T02:20:07.410336,15.34592548,.0001133,97.4500,301.9142,93.3780,266.7592,0,U,42988,999,48188,.28474E-3,.9464E-4,0
SKYSAT-C9,2017-068C,2026-06-14T04:30:47.850912,15.41495169,.0009288,97.4419,302.9120,142.4721,217.7176,0,U,42989,999,48229,.32008E-3,.13355E-3,0
SKYSAT-C8,2017-068D,2026-06-13T22:38:06.923616,15.36918542,.000148,97.4516,301.5459,98.0726,262.0686,0,U,42990,999,48181,.30374E-3,.10885E-3,0
SKYSAT-C7,2017-068E,2026-06-14T03:10:02.781696,15.36871814,.0007198,97.4527,302.7266,115.3171,244.8819,0,U,42991,999,48190,.30819E-3,.11038E-3,0
SKYSAT-C6,2017-068F,2026-06-13T22:49:11.063136,15.34159890,.0004268,97.4560,302.5247,145.8503,214.3015,0,U,42992,999,48182,.28781E-3,.9439E-4,0
CARTOSAT-2F,2018-004A,2026-06-14T04:17:13.377984,15.19195896,.0000551,97.4794,224.8423,240.1534,119.9646,0,U,43111,999,46687,.28042E-3,.5833E-4,0
GAOFEN-1 02,2018-031A,2026-06-14T04:20:41.919072,14.76451893,.0003987,98.0533,227.7162,41.5347,318.6165,0,U,43259,999,44225,.7577E-4,.475E-5,0
GAOFEN-1 03,2018-031B,2026-06-14T05:26:51.403776,14.76465252,.0003802,98.0523,227.6210,84.9909,275.1735,0,U,43260,999,44225,.10053E-3,.648E-5,0
GAOFEN-1 04,2018-031D,2026-06-14T04:51:50.504832,14.76475967,.0002233,98.0534,227.7868,86.2225,273.9240,0,U,43262,999,44224,.13989E-3,.922E-5,0
SENTINEL-3B,2018-039A,2026-06-14T04:10:43.814208,14.26734006,.0000754,98.6249,232.7495,83.4735,276.6531,0,U,43437,999,42369,.60315E-4,.102E-5,0
GAOFEN-5 01,2018-043A,2026-06-14T04:25:41.758176,14.60603461,.0003036,98.4568,136.7077,88.4922,271.6626,0,U,43461,999,43125,.67286E-4,.278E-5,0
GAOFEN-6,2018-048A,2026-06-14T05:24:03.538944,14.76596225,.0011629,97.8552,228.0476,176.9934,183.1348,0,U,43484,999,43295,.12839E-3,.847E-5,0
GAOFEN-11 01,2018-063A,2026-06-14T05:07:40.669824,15.55209783,.0003392,97.1300,232.1016,10.8867,349.2460,0,U,43585,999,43988,.22367E-3,.15023E-3,0
ICESAT-2,2018-070A,2026-06-14T03:25:54.632352,15.28235840,.0005881,92.0076,290.1564,113.1179,247.0690,0,U,43613,999,43199,.38229E-3,.1052E-3,0
HYSIS,2018-096A,2026-06-14T03:59:30.397920,14.78691704,.0001904,97.9847,231.9381,110.0454,250.0962,0,U,43719,999,40697,.18388E-3,.1297E-4,0
