GAOFEN-3                
1 41727U 16049A   26165.23947718  .00000096  00000+0  42268-4 0  9992
2 41727  98.4009 173.0698 0001333  98.6633 261.4708 14.42215350518225
SKYSAT-C4               
1 41771U 16058B   26164.97191715  .00016820  00000+0  31774-3 0  9990
2 41771  96.9169 186.8788 0001148 127.0278 233.1078 15.48494630544976
SKYSAT-C5               
1 41772U 16058C   26165.10415610  .00007996  00000+0  24200-3 0  9990
2 41772  97.0472 205.8819 0001371 337.9126  22.2059 15.34431439543276
SKYSAT-C2               
1 41773U 16058D   26165.01478093  .00012598  00000+0  29716-3 0  9996
2 41773  97.0167 187.2291 0004904  77.2296 282.9500 15.42005299544561
SKYSAT-C3               
1 41774U 16058E   26164.98502382  .00024284  00000+0  39861-3 0  9998
2 41774  96.9003 195.9554 0001627  87.6160 272.5280 15.52412222545617
ALSAT-1B                
1 41785U 16059C   26165.18182760  .00000237  00000+0  44962-4 0  9999
2 41785  97.7748 174.0751 0007925 231.1936 128.8565 14.72272283520136
PATHFINDER 1            
1 41787U 16059E   26165.00039061  .00000528  00000+0  10057-3 0  9997
2 41787  97.8166 164.4204 0027559 214.0063 145.9378 14.67659964519246
SCATSAT 1               
1 41790U 16059H   26165.16989644  .00000977  00000+0  13515-3 0  9999
2 41790  98.1191 228.9048 0053294 257.4800 102.0446 14.79519717101149
GOKTURK 1A              
1 41875U 16073A   26165.16755583  .00000798  00000+0  16570-3 0  9997
2 41875  98.1262  59.8898 0001445  76.1155 284.0208 14.62774211508384
RESOURCESAT-2A          
1 41877U 16074A   26165.18512988  .00000240  00000+0  12947-3 0  9998
2 41877  98.7532 238.7137 0003340  90.1944 269.9616 14.21615856493870
CARTOSAT-2D             
1 41948U 17008A   26165.19462742  .00004316  00000+0  20759-3 0  9996
2 41948  97.4113 224.5561 0003734 241.5938 118.4921 15.19313753517127
SENTINEL-2B             
1 42063U 17013A   26165.20049700 -.00000061  00000+0 -67464-5 0  9999
2 42063  98.5697 240.0167 0001175  87.4207 272.7110 14.30815586484213
CARTOSAT-2E             
1 42767U 17036C   26165.14652594  .00004285  00000+0  20662-3 0  9996
2 42767  97.4285 224.9986 0002662 336.2358  23.8753 15.19234418497689
FORMOSAT-5              
1 42920U 17049A   26165.15644194  .00000152  00000+0  49551-4 0  9997
2 42920  98.2253 240.5334 0012704  92.7231 267.5419 14.50897869466239
SENTINEL-5P             
1 42969U 17064A   26164.81855227  .00000034  00000+0  37204-4 0  9991
2 42969  98.7925 106.9737 0000969  83.5750 276.5536 14.19518491449089
SKYSAT-C11              
1 42987U 17068A   26164.97402289  .00027117  00000+0  36630-3 0  9990
2 42987  97.4343 313.6651 0000772  89.1634 270.9709 15.57742421482741
SKYSAT-C10              
1 42988U 17068B   26165.09730799  .00009464  00000+0  28474-3 0  9997
2 42988  97.4500 301.9142 0001133  93.3780 266.7592 15.34592548481888
SKYSAT-C9               
1 42989U 17068C   26165.18805383  .00013355  00000+0  32008-3 0  9992
2 42989  97.4419 302.9120 0009288 142.4721 217.7176 15.41495169482294
SKYSAT-C8               
1 42990U 17068D   26164.94313569  .00010885  00000+0  30374-3 0  9996
2 42990  97.4516 301.5459 0001480  98.0726 262.0686 15.36918542481816
SKYSAT-C7               
1 42991U 17068E   26165.13197664  .00011038  00000+0  30819-3 0  9990
2 42991  97.4527 302.7266 0007198 115.3171 244.8819 15.36871814481903
SKYSAT-C6               
1 42992U 17068F   26164.95082249  .00009439  00000+0  28781-3 0  9999
2 42992  97.4560 302.5247 0004268 145.8503 214.3015 15.34159890481822
CARTOSAT-2F             
1 43111U 18004A   26165.17862706  .00005833  00000+0  28042-3 0  9997
2 43111  97.4794 224.8423 0000551 240.1534 119.9646 15.19195896466878
GAOFEN-1 02             
1 43259U 18031A   26165.18104073  .00000475  00000+0  75770-4 0  9995
2 43259  98.0533 227.7162 0003987  41.5347 318.6165 14.76451893442256
GAOFEN-1 03             
1 43260U 18031B   26165.22698384  .00000648  00000+0  10053-3 0  9999
2 43260  98.0523 227.6210 0003802  84.9909 275.1735 14.76465252442255
GAOFEN-1 04             
1 43262U 18031D   26165.20266788  .00000922  00000+0  13989-3 0  9994
2 43262  98.0534 227.7868 0002233  86.2225 273.9240 14.76475967442242
SENTINEL-3B             
1 43437U 18039A   26165.17411822  .00000102  00000+0  60315-4 0  9999
2 43437  98.6249 232.7495 0000754  83.4735 276.6531 14.26734006423696
GAOFEN-5 01             
1 43461U 18043A   26165.18451109  .00000278  00000+0  67286-4 0  9992
2 43461  98.4568 136.7077 0003036  88.4922 271.6626 14.60603461431252
GAOFEN-6                
1 43484U 18048A   26165.22504096  .00000847  00000+0  12839-3 0  9996
2 43484  97.8552 228.0476 0011629 176.9934 183.1348 14.76596225432956
GAOFEN-11 01            
1 43585U 18063A   26165.21366516  .00015023  00000+0  22367-3 0  9996
2 43585  97.1300 232.1016 0003392  10.8867 349.2460 15.55209783439884
ICESAT-2                
1 43613U 18070A   26165.14299343  .00010520  00000+0  38229-3 0  9992
2 43613  92.0076 290.1564 0005881 113.1179 247.0690 15.28235840431997
HYSIS                   
1 43719U 18096A   26165.16632405  .00001297  00000+0  18388-3 0  9994
2 43719  97.9847 231.9381 0001904 110.0454 250.0962 14.78691704406973
